NORAD_CAT_ID,OBJECT_NAME,OBJECT_TYPE,EPOCH,MEAN_MOTION,ECCENTRICITY,INCLINATION,RA_OF_ASC_NODE,ARG_OF_PERICENTER,MEAN_ANOMALY,BSTAR,MEAN_MOTION_DOT,MEAN_MOTION_DDOT,TLE_LINE0,TLE_LINE1,TLE_LINE2,SEMIMAJOR_AXIS,PERIOD,APOGEE,PERIGEE,DECAYED
53251.0,STARLINK-4129,PAYLOAD,2022-12-04 20:07:04,15.08850858,0.0002235,53.2159,140.0673,45.3698,314.7476,9.6005e-05,1.24e-05,0.0,0 STARLINK-4129,1 53251U 22086K   22338.83824532  .00001240  00000-0  96005-4 0  9998,2 53251  53.2159 140.0673 0002235  45.3698 314.7476 15.08850858 21284,6917.847,95.437,541.258,538.1659999999998,0.0
53251.0,STARLINK-4129,PAYLOAD,2022-12-05 04:03:59,15.0885136,0.0002288,53.216,138.5804,46.3857,313.7324,0.00016791,2.386e-05,0.0,0 STARLINK-4129,1 53251U 22086K   22339.16944333  .00002386  00000-0  16791-3 0  9992,2 53251  53.2160 138.5804 0002288  46.3857 313.7324 15.08851360 21156,6917.846,95.437,541.293,538.128,0.0
53251.0,STARLINK-4129,PAYLOAD,2022-12-05 10:25:32,15.08850257,0.0002205,53.2159,137.3909,45.7239,314.3934,0.00023556,3.464e-05,0.0,0 STARLINK-4129,1 53251U 22086K   22339.43440269  .00003464  00000-0  23556-3 0  9996,2 53251  53.2159 137.3909 0002205  45.7239 314.3934 15.08850257 21375,6917.849,95.437,541.239,538.189,0.0
53251.0,STARLINK-4129,PAYLOAD,2022-12-05 16:47:05,15.08843849,0.0002238,53.2163,136.2013,46.1804,313.9373,0.00012229,1.659e-05,0.0,0 STARLINK-4129,1 53251U 22086K   22339.69936561  .00001659  00000-0  12229-3 0  9998,2 53251  53.2163 136.2013 0002238  46.1804 313.9373 15.08843849 21239,6917.869000000002,95.437,541.2819999999998,538.185,0.0
53251.0,STARLINK-4129,PAYLOAD,2022-12-05 19:57:51,15.08841693,0.0002198,53.2161,135.6065,45.6665,314.4507,6.8789e-05,8.07e-06,0.0,0 STARLINK-4129,1 53251U 22086K   22339.83184642  .00000807  00000-0  68789-4 0  9996,2 53251  53.2161 135.6065 0002198  45.6665 314.4507 15.08841693 21433,6917.875,95.437,541.261,538.22,0.0
53251.0,STARLINK-4129,PAYLOAD,2022-12-06 03:54:46,15.08845172,0.0002189,53.2161,134.1197,45.5427,314.5744,0.00010504,1.384e-05,0.0,0 STARLINK-4129,1 53251U 22086K   22340.16304390  .00001384  00000-0  10504-3 0  9990,2 53251  53.2161 134.1197 0002189  45.5427 314.5744 15.08845172 21483,6917.865,95.437,541.244,538.215,0.0
53251.0,STARLINK-4129,PAYLOAD,2022-12-06 19:48:38,15.088367300000002,0.0002175,53.2174,131.1464,45.8847,314.2323,-3.8094e-05,-8.94e-06,0.0,0 STARLINK-4129,1 53251U 22086K   22340.82545134 -.00000894  00000-0 -38094-4 0  9998,2 53251  53.2174 131.1464 0002175  45.8847 314.2323 15.08836730 21586,6917.89,95.438,541.26,538.251,0.0
53251.0,STARLINK-4129,PAYLOAD,2022-12-06 21:24:02,15.08837216,0.0002172,53.2173,130.849,45.5552,314.5618,-3.7341e-05,-8.82e-06,0.0,0 STARLINK-4129,1 53251U 22086K   22340.89169077 -.00000882  00000-0 -37341-4 0  9994,2 53251  53.2173 130.8490 0002172  45.5552 314.5618 15.08837216 21419,6917.889,95.438,541.256,538.251,0.0
53251.0,STARLINK-4129,PAYLOAD,2022-12-07 10:07:06,15.08843756,0.0002151,53.2173,128.4703,44.922,315.1946,1.8377e-06,-2.59e-06,0.0,0 STARLINK-4129,1 53251U 22086K   22341.42160523 -.00000259  00000-0  18377-5 0  9997,2 53251  53.2173 128.4703 0002151  44.9220 315.1946 15.08843756 21496,6917.869000000002,95.437,541.222,538.246,0.0
53251.0,STARLINK-4129,PAYLOAD,2022-12-07 19:39:25,15.08846687,0.0002235,53.2174,126.6864,44.9356,315.1817,0.00012697,1.733e-05,0.0,0 STARLINK-4129,1 53251U 22086K   22341.81904007  .00001733  00000-0  12697-3 0  9997,2 53251  53.2174 126.6864 0002235  44.9356 315.1817 15.08846687 21738,6917.86,95.437,541.271,538.179,0.0
53251.0,STARLINK-4129,PAYLOAD,2022-12-08 09:57:53,15.08845139,0.000224,53.2174,124.0102,44.9261,315.1912,5.6309e-05,6.08e-06,0.0,0 STARLINK-4129,1 53251U 22086K   22342.41520099  .00000608  00000-0  56309-4 0  9998,2 53251  53.2174 124.0102 0002240  44.9261 315.1912 15.08845139 21823,6917.865,95.437,541.279,538.18,0.0
53251.0,STARLINK-4129,PAYLOAD,2022-12-08 16:19:25,15.08845422,0.0002251,53.2173,122.8209,43.8727,316.2443,0.00011323,1.515e-05,0.0,0 STARLINK-4129,1 53251U 22086K   22342.68015889  .00001515  00000-0  11323-3 0  9997,2 53251  53.2173 122.8209 0002251  43.8727 316.2443 15.08845422 21683,6917.864000000001,95.437,541.286,538.172,0.0
53251.0,STARLINK-4129,PAYLOAD,2022-12-10 14:25:38,15.08829874,0.0002074,53.218,114.1978,41.9707,318.1443,-3.4146e-05,-8.31e-06,0.0,0 STARLINK-4129,1 53251U 22086K   22344.60114188 -.00000831  00000-0 -34146-4 0  9994,2 53251  53.2180 114.1978 0002074  41.9707 318.1443 15.08829874 22155,6917.911,95.438,541.211,538.342,0.0
53251.0,STARLINK-4129,PAYLOAD,2022-12-10 16:01:01,15.08831389,0.0002223,53.2183,113.9005,38.1663,321.9486,-2.2699e-05,-6.49e-06,0.0,0 STARLINK-4129,1 53251U 22086K   22344.66738164 -.00000649  00000-0 -22699-4 0  9993,2 53251  53.2183 113.9005 0002223  38.1663 321.9486 15.08831389 22165,6917.906999999997,95.438,541.31,538.234,0.0
53251.0,STARLINK-4129,PAYLOAD,2022-12-11 04:44:06,15.08835343,0.0002068,53.2175,111.5206,33.0174,327.0947,0.00015416,2.166e-05,0.0,0 STARLINK-4129,1 53251U 22086K   22345.19729789  .00002166  00000-0  15416-3 0  9997,2 53251  53.2175 111.5206 0002068  33.0174 327.0947 15.08835343 22063,6917.895,95.438,541.19,538.3290000000002,0.0
53251.0,STARLINK-4129,PAYLOAD,2022-12-11 12:41:01,15.08843903,0.0002119,53.2174,110.0342,35.6191,324.4942,0.00025654,3.797e-05,0.0,0 STARLINK-4129,1 53251U 22086K   22345.52849167  .00003797  00000-0  25654-3 0  9993,2 53251  53.2174 110.0342 0002119  35.6191 324.4942 15.08843903 22114,6917.868,95.437,541.1990000000002,538.268,0.0
53251.0,STARLINK-4129,PAYLOAD,2022-12-11 20:37:57,15.08844218,0.0002282,53.2167,108.5477,36.8623,323.2525,0.00033913,5.114e-05,0.0,0 STARLINK-4129,1 53251U 22086K   22345.85969818  .00005114  00000-0  33913-3 0  9997,2 53251  53.2167 108.5477 0002282  36.8623 323.2525 15.08844218 22160,6917.8669999999975,95.437,541.311,538.154,0.0
53251.0,STARLINK-4129,PAYLOAD,2022-12-12 12:31:48,15.08849605,0.0002215,53.2162,105.5741,38.8582,321.2569,0.00015079,2.113e-05,0.0,0 STARLINK-4129,1 53251U 22086K   22346.52209220  .00002113  00000-0  15079-3 0  9995,2 53251  53.2162 105.5741 0002215  38.8582 321.2569 15.08849605 22440,6917.851,95.437,541.248,538.184,0.0
53251.0,STARLINK-4129,PAYLOAD,2022-12-12 20:28:44,15.08854548,0.0002272,53.2161,104.0874,37.5345,322.5805,0.00047553,7.291e-05,0.0,0 STARLINK-4129,1 53251U 22086K   22346.85329048  .00007291  00000-0  47553-3 0  9996,2 53251  53.2161 104.0874 0002272  37.5345 322.5805 15.08854548 22490,6917.8359999999975,95.437,541.273,538.129,0.0
53251.0,STARLINK-4129,PAYLOAD,2022-12-13 04:25:40,15.08847804,0.000227,53.2161,102.6006,36.5807,323.534,0.00038291,5.812e-05,0.0,0 STARLINK-4129,1 53251U 22086K   22347.18449155  .00005812  00000-0  38291-3 0  9991,2 53251  53.2161 102.6006 0002270  36.5807 323.5340 15.08847804 22369,6917.857,95.437,541.2919999999998,538.151,0.0
53251.0,STARLINK-4129,PAYLOAD,2022-12-13 13:57:58,15.0885258,0.0002283,53.2161,100.8165,35.79,324.3244,0.00061646,9.54e-05,0.0,0 STARLINK-4129,1 53251U 22086K   22347.58192986  .00009540  00000-0  61646-3 0  9994,2 53251  53.2161 100.8165 0002283  35.7900 324.3244 15.08852580 22600,6917.842,95.437,541.286,538.128,0.0
53251.0,STARLINK-4129,PAYLOAD,2022-12-13 20:19:31,15.08844734,0.0002383,53.216,99.6272,32.7325,327.3814,0.00032217,4.844e-05,0.0,0 STARLINK-4129,1 53251U 22086K   22347.84689123  .00004844  00000-0  32217-3 0  9991,2 53251  53.2160  99.6272 0002383  32.7325 327.3814 15.08844734 22644,6917.866,95.437,541.379,538.082,0.0
53251.0,STARLINK-4129,PAYLOAD,2022-12-14 02:41:03,15.08843784,0.0002424,53.2161,98.438,32.3529,327.7611,0.00030989,4.648e-05,0.0,0 STARLINK-4129,1 53251U 22086K   22348.11185141  .00004648  00000-0  30989-3 0  9999,2 53251  53.2161  98.4380 0002424  32.3529 327.7611 15.08843784 22508,6917.869000000002,95.437,541.411,538.057,0.0
53251.0,STARLINK-4129,PAYLOAD,2022-12-14 13:48:45,15.08839359,0.0002288,53.2163,96.3562,31.2359,328.8769,0.00016348,2.314e-05,0.0,0 STARLINK-4129,1 53251U 22086K   22348.57553193  .00002314  00000-0  16348-3 0  9996,2 53251  53.2163  96.3562 0002288  31.2359 328.8769 15.08839359 22752,6917.882,95.438,541.33,538.165,0.0
53251.0,STARLINK-4129,PAYLOAD,2022-12-14 18:34:55,15.08845674,0.0002309,53.2166,95.4639,33.2159,326.8977,0.00021355,3.113e-05,0.0,0 STARLINK-4129,1 53251U 22086K   22348.77425129  .00003113  00000-0  21355-3 0  9997,2 53251  53.2166  95.4639 0002309  33.2159 326.8977 15.08845674 22783,6917.863,95.437,541.325,538.131,0.0
53251.0,STARLINK-4129,PAYLOAD,2022-12-15 07:18:00,15.08845184,0.0002355,53.2166,93.0851,31.9523,328.1612,0.00018042,2.585e-05,0.0,0 STARLINK-4129,1 53251U 22086K   22349.30417158  .00002585  00000-0  18042-3 0  9991,2 53251  53.2166  93.0851 0002355  31.9523 328.1612 15.08845184 22680,6917.865,95.437,541.359,538.1,0.0
53251.0,STARLINK-4129,PAYLOAD,2022-12-15 12:04:09,15.08853944,0.0002365,53.2166,92.1932,31.2771,328.8362,0.00046307,7.092e-05,0.0,0 STARLINK-4129,1 53251U 22086K   22349.50288930  .00007092  00000-0  46307-3 0  9990,2 53251  53.2166  92.1932 0002365  31.2771 328.8362 15.08853944 22894,6917.8380000000025,95.437,541.339,538.067,0.0
53251.0,STARLINK-4129,PAYLOAD,2022-12-15 18:25:42,15.08842555,0.0002407,53.2167,91.004,30.3618,329.7514,0.00012404,1.686e-05,0.0,0 STARLINK-4129,1 53251U 22086K   22349.76785223  .00001686  00000-0  12404-3 0  9999,2 53251  53.2167  91.0040 0002407  30.3618 329.7514 15.08842555 22930,6917.873000000001,95.437,541.403,538.072,0.0
53251.0,STARLINK-4129,PAYLOAD,2022-12-16 05:33:24,15.08839246,0.0002362,53.2168,88.9223,31.032,329.0811,8.007e-05,9.86e-06,0.0,0 STARLINK-4129,1 53251U 22086K   22350.23153373  .00000986  00000-0  80070-4 0  9995,2 53251  53.2168  88.9223 0002362  31.0320 329.0811 15.08839246 22821,6917.8830000000025,95.438,541.382,538.114,0.0
